[{"OBJECT_NAME":"STARLINK-34408","OBJECT_ID":"2025-126V","EPOCH":"2026-03-17T03:36:43.136064","MEAN_MOTION":14.9833385,"ECCENTRICITY":0.00028532,"INCLINATION":70.0033,"RA_OF_ASC_NODE":15.4761,"ARG_OF_PERICENTER":269.2065,"MEAN_ANOMALY":90.8767,"EPHEMERIS_TYPE":0,"CLASSIFICATION_TYPE":"U","NORAD_CAT_ID":64363,"ELEMENT_SET_NO":999,"REV_AT_EPOCH":4180,"BSTAR":0.00031777674,"MEAN_MOTION_DOT":3.701e-5,"MEAN_MOTION_DDOT":0},{"OBJECT_NAME":"STARLINK-34476","OBJECT_ID":"2025-126W","EPOCH":"2026-03-17T04:06:47.384928","MEAN_MOTION":14.98321618,"ECCENTRICITY":0.00029889,"INCLINATION":70.0029,"RA_OF_ASC_NODE":15.5486,"ARG_OF_PERICENTER":269.1069,"MEAN_ANOMALY":90.9748,"EPHEMERIS_TYPE":0,"CLASSIFICATION_TYPE":"U","NORAD_CAT_ID":64364,"ELEMENT_SET_NO":999,"REV_AT_EPOCH":4180,"BSTAR":0.00034562849,"MEAN_MOTION_DOT":4.033e-5,"MEAN_MOTION_DDOT":0},{"OBJECT_NAME":"STARLINK-34479","OBJECT_ID":"2025-126X","EPOCH":"2026-03-17T06:43:00.610752","MEAN_MOTION":14.98336611,"ECCENTRICITY":0.0004741,"INCLINATION":70.0022,"RA_OF_ASC_NODE":15.5221,"ARG_OF_PERICENTER":266.5255,"MEAN_ANOMALY":93.5362,"EPHEMERIS_TYPE":0,"CLASSIFICATION_TYPE":"U","NORAD_CAT_ID":64365,"ELEMENT_SET_NO":999,"REV_AT_EPOCH":4181,"BSTAR":0.00033058812,"MEAN_MOTION_DOT":3.855e-5,"MEAN_MOTION_DDOT":0},{"OBJECT_NAME":"STARLINK-34484","OBJECT_ID":"2025-126Y","EPOCH":"2026-03-17T05:18:20.015136","MEAN_MOTION":14.99770804,"ECCENTRICITY":0.00235338,"INCLINATION":70.0001,"RA_OF_ASC_NODE":15.3112,"ARG_OF_PERICENTER":202.2058,"MEAN_ANOMALY":157.8085,"EPHEMERIS_TYPE":0,"CLASSIFICATION_TYPE":"U","NORAD_CAT_ID":64366,"ELEMENT_SET_NO":999,"REV_AT_EPOCH":4302,"BSTAR":0.055595856,"MEAN_MOTION_DOT":0.00737573,"MEAN_MOTION_DDOT":0},{"OBJECT_NAME":"STARLINK-34483","OBJECT_ID":"2025-126Z","EPOCH":"2026-03-17T07:01:14.894400","MEAN_MOTION":14.98333866,"ECCENTRICITY":0.00030846,"INCLINATION":70.0025,"RA_OF_ASC_NODE":15.1632,"ARG_OF_PERICENTER":271.9955,"MEAN_ANOMALY":88.0851,"EPHEMERIS_TYPE":0,"CLASSIFICATION_TYPE":"U","NORAD_CAT_ID":64367,"ELEMENT_SET_NO":999,"REV_AT_EPOCH":4182,"BSTAR":0.00037928955,"MEAN_MOTION_DOT":4.436e-5,"MEAN_MOTION_DDOT":0},{"OBJECT_NAME":"STARLINK-34457","OBJECT_ID":"2025-126AA","EPOCH":"2026-03-17T03:07:22.507968","MEAN_MOTION":14.96597394,"ECCENTRICITY":0.00092927,"INCLINATION":70.0064,"RA_OF_ASC_NODE":15.8045,"ARG_OF_PERICENTER":153.6959,"MEAN_ANOMALY":206.4673,"EPHEMERIS_TYPE":0,"CLASSIFICATION_TYPE":"U","NORAD_CAT_ID":64368,"ELEMENT_SET_NO":999,"REV_AT_EPOCH":4179,"BSTAR":-0.068491717,"MEAN_MOTION_DOT":-0.00734263,"MEAN_MOTION_DDOT":0},{"OBJECT_NAME":"STARLINK-34444","OBJECT_ID":"2025-126AB","EPOCH":"2026-03-17T04:49:05.063520","MEAN_MOTION":14.9833842,"ECCENTRICITY":0.00027608,"INCLINATION":70.0026,"RA_OF_ASC_NODE":15.6449,"ARG_OF_PERICENTER":272.4978,"MEAN_ANOMALY":87.5865,"EPHEMERIS_TYPE":0,"CLASSIFICATION_TYPE":"U","NORAD_CAT_ID":64369,"ELEMENT_SET_NO":999,"REV_AT_EPOCH":4180,"BSTAR":0.000465034,"MEAN_MOTION_DOT":5.461e-5,"MEAN_MOTION_DDOT":0},{"OBJECT_NAME":"STARLINK-11732 [DTC]","OBJECT_ID":"2025-127A","EPOCH":"2026-03-16T09:04:54.211872","MEAN_MOTION":15.7096838,"ECCENTRICITY":0.00014382,"INCLINATION":42.9989,"RA_OF_ASC_NODE":44.2815,"ARG_OF_PERICENTER":302.4587,"MEAN_ANOMALY":57.6142,"EPHEMERIS_TYPE":0,"CLASSIFICATION_TYPE":"U","NORAD_CAT_ID":64370,"ELEMENT_SET_NO":999,"REV_AT_EPOCH":4455,"BSTAR":0.0022962848,"MEAN_MOTION_DOT":0.00306994,"MEAN_MOTION_DDOT":0},{"OBJECT_NAME":"STARLINK-11731 [DTC]","OBJECT_ID":"2025-127B","EPOCH":"2026-03-17T05:18:06.590304","MEAN_MOTION":15.70863696,"ECCENTRICITY":0.00020529,"INCLINATION":43.0004,"RA_OF_ASC_NODE":39.4307,"ARG_OF_PERICENTER":261.8919,"MEAN_ANOMALY":98.1716,"EPHEMERIS_TYPE":0,"CLASSIFICATION_TYPE":"U","NORAD_CAT_ID":64371,"ELEMENT_SET_NO":999,"REV_AT_EPOCH":4468,"BSTAR":0.00086274737,"MEAN_MOTION_DOT":0.0011187,"MEAN_MOTION_DDOT":0},{"OBJECT_NAME":"STARLINK-11746 [DTC]","OBJECT_ID":"2025-127C","EPOCH":"2026-03-17T04:32:14.212032","MEAN_MOTION":15.7086561,"ECCENTRICITY":0.00013809,"INCLINATION":42.999,"RA_OF_ASC_NODE":39.1702,"ARG_OF_PERICENTER":267.4517,"MEAN_ANOMALY":92.6193,"EPHEMERIS_TYPE":0,"CLASSIFICATION_TYPE":"U","NORAD_CAT_ID":64372,"ELEMENT_SET_NO":999,"REV_AT_EPOCH":4468,"BSTAR":0.00136113,"MEAN_MOTION_DOT":0.00178188,"MEAN_MOTION_DDOT":0},{"OBJECT_NAME":"STARLINK-11748 [DTC]","OBJECT_ID":"2025-127D","EPOCH":"2026-03-17T04:03:09.133344","MEAN_MOTION":15.70861074,"ECCENTRICITY":0.0001496,"INCLINATION":42.9989,"RA_OF_ASC_NODE":39.9015,"ARG_OF_PERICENTER":249.236,"MEAN_ANOMALY":110.8347,"EPHEMERIS_TYPE":0,"CLASSIFICATION_TYPE":"U","NORAD_CAT_ID":64373,"ELEMENT_SET_NO":999,"REV_AT_EPOCH":4467,"BSTAR":0.0013552512,"MEAN_MOTION_DOT":0.00177365,"MEAN_MOTION_DDOT":0},{"OBJECT_NAME":"STARLINK-11739 [DTC]","OBJECT_ID":"2025-127E","EPOCH":"2026-03-17T04:09:17.963712","MEAN_MOTION":15.7086659,"ECCENTRICITY":0.0001311,"INCLINATION":42.9984,"RA_OF_ASC_NODE":39.041,"ARG_OF_PERICENTER":244.0097,"MEAN_ANOMALY":116.0636,"EPHEMERIS_TYPE":0,"CLASSIFICATION_TYPE":"U","NORAD_CAT_ID":64374,"ELEMENT_SET_NO":999,"REV_AT_EPOCH":4468,"BSTAR":0.0007529679,"MEAN_MOTION_DOT":0.00097415,"MEAN_MOTION_DDOT":0},{"OBJECT_NAME":"STARLINK-11738 [DTC]","OBJECT_ID":"2025-127F","EPOCH":"2026-03-17T04:01:50.464416","MEAN_MOTION":15.70845648,"ECCENTRICITY":0.00016022,"INCLINATION":42.9995,"RA_OF_ASC_NODE":39.8932,"ARG_OF_PERICENTER":176.7435,"MEAN_ANOMALY":183.3444,"EPHEMERIS_TYPE":0,"CLASSIFICATION_TYPE":"U","NORAD_CAT_ID":64375,"ELEMENT_SET_NO":999,"REV_AT_EPOCH":4467,"BSTAR":0.0012534101,"MEAN_MOTION_DOT":0.00163624,"MEAN_MOTION_DDOT":0},{"OBJECT_NAME":"STARLINK-11745 [DTC]","OBJECT_ID":"2025-127G","EPOCH":"2026-03-17T04:47:31.822368","MEAN_MOTION":15.70938526,"ECCENTRICITY":6.003e-5,"INCLINATION":42.9987,"RA_OF_ASC_NODE":39.2535,"ARG_OF_PERICENTER":213.108,"MEAN_ANOMALY":146.975,"EPHEMERIS_TYPE":0,"CLASSIFICATION_TYPE":"U","NORAD_CAT_ID":64376,"ELEMENT_SET_NO":999,"REV_AT_EPOCH":4468,"BSTAR":0.0013499062,"MEAN_MOTION_DOT":0.00177238,"MEAN_MOTION_DDOT":0},{"OBJECT_NAME":"STARLINK-11742 [DTC]","OBJECT_ID":"2025-127H","EPOCH":"2026-03-17T03:38:54.286080","MEAN_MOTION":15.70992965,"ECCENTRICITY":0.00028511,"INCLINATION":42.9983,"RA_OF_ASC_NODE":39.7655,"ARG_OF_PERICENTER":296.8158,"MEAN_ANOMALY":63.2417,"EPHEMERIS_TYPE":0,"CLASSIFICATION_TYPE":"U","NORAD_CAT_ID":64377,"ELEMENT_SET_NO":999,"REV_AT_EPOCH":4467,"BSTAR":0.0011681046,"MEAN_MOTION_DOT":0.00153227,"MEAN_MOTION_DDOT":0},{"OBJECT_NAME":"STARLINK-11711 [DTC]","OBJECT_ID":"2025-127J","EPOCH":"2026-03-17T04:24:35.739936","MEAN_MOTION":15.7084147,"ECCENTRICITY":0.00010406,"INCLINATION":42.9991,"RA_OF_ASC_NODE":39.1247,"ARG_OF_PERICENTER":256.5543,"MEAN_ANOMALY":103.5209,"EPHEMERIS_TYPE":0,"CLASSIFICATION_TYPE":"U","NORAD_CAT_ID":64378,"ELEMENT_SET_NO":999,"REV_AT_EPOCH":4479,"BSTAR":0.00038130452,"MEAN_MOTION_DOT":0.00048768,"MEAN_MOTION_DDOT":0}]
