STARLINK-34408          
1 64363U 25126V   26076.15049926  .00003701  00000+0  31778-3 0  9994
2 64363  70.0033  15.4761 0002853 269.2065  90.8767 14.98333850 41803
STARLINK-34476          
1 64364U 25126W   26076.17138177  .00004033  00000+0  34563-3 0  9998
2 64364  70.0029  15.5486 0002988 269.1069  90.9748 14.98321618 41805
STARLINK-34479          
1 64365U 25126X   26076.27986818  .00003855  00000+0  33059-3 0  9993
2 64365  70.0022  15.5221 0004741 266.5255  93.5362 14.98336611 41814
STARLINK-34484          
1 64366U 25126Y   26076.22106499  .00737573  00000+0  55596-1 0  9997
2 64366  70.0001  15.3112 0023533 202.2058 157.8085 14.99770804 43025
STARLINK-34483          
1 64367U 25126Z   26076.29253350  .00004436  00000+0  37929-3 0  9991
2 64367  70.0025  15.1632 0003084 271.9955  88.0851 14.98333866 41829
STARLINK-34457          
1 64368U 25126AA  26076.13012162 -.00734263  00000+0 -68492-1 0  9996
2 64368  70.0064  15.8045 0009292 153.6959 206.4673 14.96597394 41795
STARLINK-34444          
1 64369U 25126AB  26076.20075305  .00005461  00000+0  46503-3 0  9993
2 64369  70.0026  15.6449 0002760 272.4978  87.5865 14.98338420 41802
STARLINK-11732 [DTC]    
1 64370U 25127A   26075.37840523  .00306994  00000+0  22963-2 0  9993
2 64370  42.9989  44.2815 0001438 302.4587  57.6142 15.70968380 44552
STARLINK-11731 [DTC]    
1 64371U 25127B   26076.22090961  .00111870  00000+0  86275-3 0  9996
2 64371  43.0004  39.4307 0002052 261.8919  98.1716 15.70863696 44680
STARLINK-11746 [DTC]    
1 64372U 25127C   26076.18905338  .00178188  00000+0  13611-2 0  9993
2 64372  42.9990  39.1702 0001380 267.4517  92.6193 15.70865610 44684
STARLINK-11748 [DTC]    
1 64373U 25127D   26076.16885571  .00177365  00000+0  13553-2 0  9999
2 64373  42.9989  39.9015 0001496 249.2360 110.8347 15.70861074 44673
STARLINK-11739 [DTC]    
1 64374U 25127E   26076.17312458  .00097415  00000+0  75297-3 0  9991
2 64374  42.9984  39.0410 0001311 244.0097 116.0636 15.70866590 44683
STARLINK-11738 [DTC]    
1 64375U 25127F   26076.16794519  .00163624  00000+0  12534-2 0  9993
2 64375  42.9995  39.8932 0001602 176.7435 183.3444 15.70845648 44677
STARLINK-11745 [DTC]    
1 64376U 25127G   26076.19967387  .00177238  00000+0  13499-2 0  9999
2 64376  42.9987  39.2535 0000600 213.1080 146.9750 15.70938526 44685
STARLINK-11742 [DTC]    
1 64377U 25127H   26076.15201720  .00153227  00000+0  11681-2 0  9991
2 64377  42.9983  39.7655 0002851 296.8158  63.2417 15.70992965 44671
STARLINK-11711 [DTC]    
1 64378U 25127J   26076.18374699  .00048768  00000+0  38130-3 0  9993
2 64378  42.9991  39.1247 0001040 256.5543 103.5209 15.70841470 44796
